[{"id":"43070","name":"IRIDIUM 135","tle1":"1 43070U 17083A   26175.96563859  .00000002  00000+0 -62527-5 0  9994","tle2":"2 43070  86.3969 318.7630 0002057  92.5637 267.5795 14.34217557445262"},{"id":"43071","name":"IRIDIUM 138","tle1":"1 43071U 17083B   26175.85147215  .00000055  00000+0  12425-4 0  9995","tle2":"2 43071  86.3985 318.5071 0002261  87.5006 272.6448 14.34217776445231"},{"id":"43072","name":"IRIDIUM 116","tle1":"1 43072U 17083C   26175.81975877  .00000224  00000+0  73038-4 0  9990","tle2":"2 43072  86.3971 318.8096 0002121 101.5019 258.6415 14.34217940445267"},{"id":"43073","name":"IRIDIUM 130","tle1":"1 43073U 17083D   26175.92758047  .00000001  00000+0 -68665-5 0  9996","tle2":"2 43073  86.3975 319.0408 0001869  96.4630 263.6779 14.34216425445223"},{"id":"43074","name":"IRIDIUM 151","tle1":"1 43074U 17083E   26175.97198127  .00000080  00000+0  21629-4 0  9993","tle2":"2 43074  86.3971 318.8038 0002185  94.0541 266.0904 14.34217801445252"},{"id":"43075","name":"IRIDIUM 134","tle1":"1 43075U 17083F   26176.14957375  .00000084  00000+0  23110-4 0  9993","tle2":"2 43075  86.3973 318.7377 0002134  93.9744 266.1696 14.34217830445247"},{"id":"43076","name":"IRIDIUM 137","tle1":"1 43076U 17083G   26175.88318524  .00000041  00000+0  74978-5 0  9993","tle2":"2 43076  86.3975 318.9421 0002445 102.4377 257.7092 14.34217820445273"},{"id":"43077","name":"IRIDIUM 141","tle1":"1 43077U 17083H   26175.94661086  .00000037  00000+0  59759-5 0  9990","tle2":"2 43077  86.3969 318.7458 0002204  91.0992 269.0456 14.34217720445284"},{"id":"43078","name":"IRIDIUM 153","tle1":"1 43078U 17083J   26176.24763238 -.00000031  00000+0 -17961-4 0  9991","tle2":"2 43078  86.3963 287.1008 0002088  90.8558 269.2877 14.34217202446436"},{"id":"43079","name":"IRIDIUM 131","tle1":"1 43079U 17083K   26175.93392563 -.00000005  00000+0 -88131-5 0  9995","tle2":"2 43079  86.3972 318.9377 0002131  92.5204 267.6236 14.34217175445210"},{"id":"43249","name":"IRIDIUM 144","tle1":"1 43249U 18030A   26176.25396960  .00000219  00000+0  71292-4 0  9992","tle2":"2 43249  86.3962 287.0269 0002217  98.2202 261.9246 14.34220109431292"},{"id":"43250","name":"IRIDIUM 149","tle1":"1 43250U 18030B   26176.26031790 -.00000015  00000+0 -12332-4 0  9998","tle2":"2 43250  86.3961 286.9914 0002192  94.0025 266.1422 14.34217298431318"},{"id":"43251","name":"IRIDIUM 157","tle1":"1 43251U 18030C   26176.20957651 -.00000002  00000+0 -77611-5 0  9994","tle2":"2 43251  86.3965 287.0661 0002119  94.8977 265.2461 14.34217570431289"},{"id":"43252","name":"IRIDIUM 140","tle1":"1 43252U 18030D   26176.29837148  .00000166  00000+0  52324-4 0  9994","tle2":"2 43252  86.3963 287.0412 0002133  95.1847 264.9592 14.34217170431353"},{"id":"43253","name":"IRIDIUM 145","tle1":"1 43253U 18030E   26176.28568738  .00000035  00000+0  54229-5 0  9992","tle2":"2 43253  86.3960 287.0189 0002063 103.7979 256.3447 14.34217627431289"},{"id":"43254","name":"IRIDIUM 146","tle1":"1 43254U 18030F   26176.26666012  .00000065  00000+0  16016-4 0  9999","tle2":"2 43254  86.3962 287.0388 0002229  98.0113 262.1336 14.34217539431298"},{"id":"43255","name":"IRIDIUM 148","tle1":"1 43255U 18030G   26175.60703065  .00000006  00000+0 -47954-5 0  9999","tle2":"2 43255  86.3965 287.3580 0002313  96.0317 264.1143 14.34217700431239"},{"id":"43256","name":"IRIDIUM 142","tle1":"1 43256U 18030H   26175.57531754 -.00000024  00000+0 -15631-4 0  9997","tle2":"2 43256  86.3960 287.2601 0002126 100.3450 259.7986 14.34217395431197"},{"id":"43257","name":"IRIDIUM 150","tle1":"1 43257U 18030J   26175.54360436  .00000053  00000+0  11720-4 0  9997","tle2":"2 43257  86.3967 287.3897 0002151  95.6239 264.5202 14.34217257431217"},{"id":"43258","name":"IRIDIUM 143","tle1":"1 43258U 18030K   26176.29203032  .00000237  00000+0  77465-4 0  9991","tle2":"2 43258  86.3969 287.1697 0002174  97.7876 262.3567 14.34217744431256"},{"id":"43478","name":"IRIDIUM 161","tle1":"1 43478U 18047C   26176.28069958  .00000298  00000+0  82515-4 0  9998","tle2":"2 43478  86.4481  85.0874 0002500  81.4536 278.6949 14.43282741426301"},{"id":"43479","name":"IRIDIUM 152","tle1":"1 43479U 18047D   26176.19497927  .00000261  00000+0  86180-4 0  9992","tle2":"2 43479  86.3956  84.9844 0002311  82.7227 277.4231 14.34217707423638"},{"id":"43480","name":"IRIDIUM 147","tle1":"1 43480U 18047E   26176.27109098 -.00000017  00000+0 -13042-4 0  9990","tle2":"2 43480  86.3956  84.9579 0002033  86.8929 273.2500 14.34217413423648"},{"id":"43481","name":"IRIDIUM 110","tle1":"1 43481U 18047F   26176.27743389 -.00000022  00000+0 -15088-4 0  9996","tle2":"2 43481  86.3958  85.0473 0002353  78.7969 281.3492 14.34217375423631"},{"id":"43482","name":"IRIDIUM 162","tle1":"1 43482U 18047G   26176.27439955  .00000163  00000+0  42583-4 0  9992","tle2":"2 43482  86.4483  84.9809 0002204  84.2357 275.9095 14.43277846426297"},{"id":"43569","name":"IRIDIUM 160","tle1":"1 43569U 18061A   26176.15350120  .00000030  00000+0  34950-5 0  9990","tle2":"2 43569  86.3958  53.4663 0002268  85.8358 274.3097 14.34217717414514"},{"id":"43570","name":"IRIDIUM 166","tle1":"1 43570U 18061B   26176.17887069  .00000002  00000+0 -62078-5 0  9993","tle2":"2 43570  86.3951  53.4059 0002012  87.5959 272.5467 14.34217600414546"},{"id":"43571","name":"IRIDIUM 158","tle1":"1 43571U 18061C   26176.21692660  .00000104  00000+0  29922-4 0  9992","tle2":"2 43571  86.3952  53.4000 0002251  84.1362 276.0091 14.34217469414512"},{"id":"43572","name":"IRIDIUM 165","tle1":"1 43572U 18061D   26176.17252796  .00000157  00000+0  48877-4 0  9998","tle2":"2 43572  86.3957  53.4653 0002154  89.0996 271.0447 14.34217463414537"},{"id":"43573","name":"IRIDIUM 155","tle1":"1 43573U 18061E   26176.20424166  .00000029  00000+0  32658-5 0  9994","tle2":"2 43573  86.3953  53.3205 0002069  84.3369 275.8063 14.34217638414500"}]