OBJECT_NAME,OBJECT_ID,EPOCH,MEAN_MOTION,ECCENTRICITY,INCLINATION,RA_OF_ASC_NODE,ARG_OF_PERICENTER,MEAN_ANOMALY,EPHEMERIS_TYPE,CLASSIFICATION_TYPE,NORAD_CAT_ID,ELEMENT_SET_NO,REV_AT_EPOCH,BSTAR,MEAN_MOTION_DOT,MEAN_MOTION_DDOT
IRIDIUM 135,2017-083A,2026-06-24T23:10:31.174176,14.34217557,.00020572,86.3969,318.7630,92.5637,267.5795,0,U,43070,999,44526,-.6252693E-5,.2E-7,0
IRIDIUM 138,2017-083B,2026-06-24T20:26:07.193760,14.34217776,.00022619,86.3985,318.5071,87.5006,272.6448,0,U,43071,999,44523,.1242491E-4,.55E-6,0
IRIDIUM 116,2017-083C,2026-06-24T19:40:27.157728,14.34217940,.00021212,86.3971,318.8096,101.5019,258.6415,0,U,43072,999,44526,.73038385E-4,.224E-5,0
IRIDIUM 130,2017-083D,2026-06-24T22:15:42.952608,14.34216425,.00018696,86.3975,319.0408,96.4630,263.6779,0,U,43073,999,44522,-.6866511E-5,.1E-7,0
IRIDIUM 151,2017-083E,2026-06-24T23:19:39.181728,14.34217801,.00021856,86.3971,318.8038,94.0541,266.0904,0,U,43074,999,44525,.21628969E-4,.8E-6,0
IRIDIUM 134,2017-083F,2026-06-25T03:35:23.172000,14.34217830,.00021345,86.3973,318.7377,93.9744,266.1696,0,U,43075,999,44524,.23110433E-4,.84E-6,0
IRIDIUM 137,2017-083G,2026-06-24T21:11:47.204736,14.34217820,.00024453,86.3975,318.9421,102.4377,257.7092,0,U,43076,999,44527,.749782E-5,.41E-6,0
IRIDIUM 141,2017-083H,2026-06-24T22:43:07.178304,14.34217720,.0002204,86.3969,318.7458,91.0992,269.0456,0,U,43077,999,44528,.5975935E-5,.37E-6,0
IRIDIUM 153,2017-083J,2026-06-25T05:56:35.437632,14.34217202,.00020886,86.3963,287.1008,90.8558,269.2877,0,U,43078,999,44643,-.17960999E-4,-.31E-6,0
IRIDIUM 131,2017-083K,2026-06-24T22:24:51.174432,14.34217175,.00021314,86.3972,318.9377,92.5204,267.6236,0,U,43079,999,44521,-.8813084E-5,-.5E-7,0
IRIDIUM 144,2018-030A,2026-06-25T06:05:42.973440,14.34220109,.0002217,86.3962,287.0269,98.2202,261.9246,0,U,43249,999,43129,.7129224E-4,.219E-5,0
IRIDIUM 149,2018-030B,2026-06-25T06:14:51.466560,14.34217298,.00021921,86.3961,286.9914,94.0025,266.1422,0,U,43250,999,43131,-.12332416E-4,-.15E-6,0
IRIDIUM 157,2018-030C,2026-06-25T05:01:47.410464,14.34217570,.00021197,86.3965,287.0661,94.8977,265.2461,0,U,43251,999,43128,-.7761068E-5,-.2E-7,0
IRIDIUM 140,2018-030D,2026-06-25T07:09:39.295872,14.34217170,.00021331,86.3963,287.0412,95.1847,264.9592,0,U,43252,999,43135,.52323652E-4,.166E-5,0
IRIDIUM 145,2018-030E,2026-06-25T06:51:23.389632,14.34217627,.00020632,86.3960,287.0189,103.7979,256.3447,0,U,43253,999,43128,.5422939E-5,.35E-6,0
IRIDIUM 146,2018-030F,2026-06-25T06:23:59.434368,14.34217539,.00022291,86.3962,287.0388,98.0113,262.1336,0,U,43254,999,43129,.16015574E-4,.65E-6,0
IRIDIUM 148,2018-030G,2026-06-24T14:34:07.448160,14.34217700,.00023134,86.3965,287.3580,96.0317,264.1143,0,U,43255,999,43123,-.4795404E-5,.6E-7,0
IRIDIUM 142,2018-030H,2026-06-24T13:48:27.435456,14.34217395,.00021268,86.3960,287.2601,100.3450,259.7986,0,U,43256,999,43119,-.15630505E-4,-.24E-6,0
IRIDIUM 150,2018-030J,2026-06-24T13:02:47.416704,14.34217257,.00021512,86.3967,287.3897,95.6239,264.5202,0,U,43257,999,43121,.11720364E-4,.53E-6,0
IRIDIUM 143,2018-030K,2026-06-25T07:00:31.419648,14.34217744,.00021741,86.3969,287.1697,97.7876,262.3567,0,U,43258,999,43125,.77465094E-4,.237E-5,0
IRIDIUM 161,2018-047C,2026-06-25T06:44:12.443712,14.43282741,.00025004,86.4481,85.0874,81.4536,278.6949,0,U,43478,999,42630,.82514655E-4,.298E-5,0
IRIDIUM 152,2018-047D,2026-06-25T04:40:46.208928,14.34217707,.00023119,86.3956,84.9844,82.7227,277.4231,0,U,43479,999,42363,.86179539E-4,.261E-5,0
IRIDIUM 147,2018-047E,2026-06-25T06:30:22.260672,14.34217413,.00020331,86.3956,84.9579,86.8929,273.2500,0,U,43480,999,42364,-.13041964E-4,-.17E-6,0
IRIDIUM 110,2018-047F,2026-06-25T06:39:30.288096,14.34217375,.00023535,86.3958,85.0473,78.7969,281.3492,0,U,43481,999,42363,-.15087544E-4,-.22E-6,0
IRIDIUM 162,2018-047G,2026-06-25T06:35:08.121120,14.43277846,.00022042,86.4483,84.9809,84.2357,275.9095,0,U,43482,999,42629,.42582866E-4,.163E-5,0
IRIDIUM 160,2018-061A,2026-06-25T03:41:02.503680,14.34217717,.0002268,86.3958,53.4663,85.8358,274.3097,0,U,43569,999,41451,.3495036E-5,.3E-6,0
IRIDIUM 166,2018-061B,2026-06-25T04:17:34.427616,14.34217600,.00020125,86.3951,53.4059,87.5959,272.5467,0,U,43570,999,41454,-.62078E-5,.2E-7,0
IRIDIUM 158,2018-061C,2026-06-25T05:12:22.458240,14.34217469,.00022516,86.3952,53.4000,84.1362,276.0091,0,U,43571,999,41451,.29922267E-4,.104E-5,0
IRIDIUM 165,2018-061D,2026-06-25T04:08:26.415744,14.34217463,.00021547,86.3957,53.4653,89.0996,271.0447,0,U,43572,999,41453,.48877498E-4,.157E-5,0
IRIDIUM 155,2018-061E,2026-06-25T04:54:06.479424,14.34217638,.00020692,86.3953,53.3205,84.3369,275.8063,0,U,43573,999,41450,.3265844E-5,.29E-6,0
